start=new Date('2022-07-09T00:00:00.000Z').valueOf();
sats=[{"APOAPSIS":"541.871","MEAN_MOTION":"15.08848600","OBJECT_NAME":"STARLINK-3304","BSTAR":"0.00018197000000","MEAN_ELEMENT_THEORY":"SGP4","SITE":"AFWTR","TLE_LINE1":"1 50161U 21125F   22189.60257588  .00002609  00000-0  18197-3 0  9993","OBJECT_ID":"2021-125F","SEMIMAJOR_AXIS":"6917.854","TIME_SYSTEM":"UTC","REV_AT_EPOCH":"3414","RCS_SIZE":"LARGE","NORAD_CAT_ID":"50161","COUNTRY_CODE":"US","ARG_OF_PERICENTER":"55.7878","LAUNCH_DATE":"2021-12-18","REF_FRAME":"TEME","PERIAPSIS":"537.568","CENTER_NAME":"EARTH","DECAY_DATE":null,"INCLINATION":"53.2147","ECCENTRICITY":"0.00031100","MEAN_MOTION_DDOT":"0.0000000000000","TLE_LINE2":"2 50161  53.2147 155.0119 0003110  55.7878 304.3408 15.08848600 34148","OBJECT_TYPE":"PAYLOAD","FILE":"3510087","ELEMENT_SET_NO":"999","MEAN_ANOMALY":"304.3408","EPOCH":"2022-07-08T14:27:42.556032","MEAN_MOTION_DOT":"0.00002609","GP_ID":"207697398","CLASSIFICATION_TYPE":"U","RA_OF_ASC_NODE":"155.0119","EPHEMERIS_TYPE":"0","PERIOD":"95.437"},{"LAUNCH_DATE":"2021-12-18","ARG_OF_PERICENTER":"14.5335","COUNTRY_CODE":"US","RCS_SIZE":"LARGE","NORAD_CAT_ID":"50162","REV_AT_EPOCH":"130","SEMIMAJOR_AXIS":"6717.496","TIME_SYSTEM":"UTC","TLE_LINE1":"1 50162U 21125G   22189.91668981 -.00052904  00000-0 -31940-3 0  9997","OBJECT_ID":"2021-125G","SITE":"AFWTR","MEAN_ELEMENT_THEORY":"SGP4","BSTAR":"-0.00031940000000","OBJECT_NAME":"STARLINK-3303","MEAN_MOTION":"15.76854402","APOAPSIS":"340.978","PERIOD":"91.321","EPHEMERIS_TYPE":"0","RA_OF_ASC_NODE":"75.1780","CLASSIFICATION_TYPE":"U","MEAN_MOTION_DOT":"-0.00052904","GP_ID":"207695646","EPOCH":"2022-07-08T22:00:01.999584","MEAN_ANOMALY":"76.6656","ELEMENT_SET_NO":"999","FILE":"3510087","OBJECT_TYPE":"PAYLOAD","TLE_LINE2":"2 50162  53.2053  75.1780 0002406  14.5335  76.6656 15.76854402  1307","MEAN_MOTION_DDOT":"0.0000000000000","ECCENTRICITY":"0.00024060","INCLINATION":"53.2053","DECAY_DATE":null,"CENTER_NAME":"EARTH","PERIAPSIS":"337.745","REF_FRAME":"TEME"},{"MEAN_MOTION":"15.08836567","APOAPSIS":"541.498","OBJECT_NAME":"STARLINK-3306","MEAN_ELEMENT_THEORY":"SGP4","BSTAR":"-0.00004652500000","TLE_LINE1":"1 50163U 21125H   22189.85194190 -.00001029  00000-0 -46525-4 0  9995","OBJECT_ID":"2021-125H","SITE":"AFWTR","SEMIMAJOR_AXIS":"6917.891","TIME_SYSTEM":"UTC","RCS_SIZE":"LARGE","NORAD_CAT_ID":"50163","REV_AT_EPOCH":"3446","LAUNCH_DATE":"2021-12-18","ARG_OF_PERICENTER":"61.8678","COUNTRY_CODE":"US","REF_FRAME":"TEME","DECAY_DATE":null,"CENTER_NAME":"EARTH","PERIAPSIS":"538.014","MEAN_MOTION_DDOT":"0.0000000000000","ECCENTRICITY":"0.00025180","INCLINATION":"53.2172","OBJECT_TYPE":"PAYLOAD","TLE_LINE2":"2 50163  53.2172 133.8770 0002518  61.8678 298.2569 15.08836567 34465","FILE":"3510087","MEAN_ANOMALY":"298.2569","ELEMENT_SET_NO":"999","CLASSIFICATION_TYPE":"U","RA_OF_ASC_NODE":"133.8770","GP_ID":"207695896","MEAN_MOTION_DOT":"-0.00001029","EPOCH":"2022-07-08T20:26:47.780160","PERIOD":"95.438","EPHEMERIS_TYPE":"0"},{"COUNTRY_CODE":"US","LAUNCH_DATE":"2021-12-18","ARG_OF_PERICENTER":"53.0228","SEMIMAJOR_AXIS":"6917.833","TIME_SYSTEM":"UTC","REV_AT_EPOCH":"3416","RCS_SIZE":"LARGE","NORAD_CAT_ID":"50165","BSTAR":"0.00015589000000","MEAN_ELEMENT_THEORY":"SGP4","SITE":"AFWTR","OBJECT_ID":"2021-125K","TLE_LINE1":"1 50165U 21125K   22189.38913627  .00002194  00000-0  15589-3 0  9996","APOAPSIS":"541.716","MEAN_MOTION":"15.08855643","OBJECT_NAME":"STARLINK-3298","EPOCH":"2022-07-08T09:20:21.373728","CLASSIFICATION_TYPE":"U","RA_OF_ASC_NODE":"155.9730","MEAN_MOTION_DOT":"0.00002194","GP_ID":"207667483","EPHEMERIS_TYPE":"0","PERIOD":"95.437","FILE":"3509949","MEAN_ANOMALY":"307.1031","ELEMENT_SET_NO":"999","INCLINATION":"53.2164","MEAN_MOTION_DDOT":"0.0000000000000","ECCENTRICITY":"0.00029180","TLE_LINE2":"2 50165  53.2164 155.9730 0002918  53.0228 307.1031 15.08855643 34164","OBJECT_TYPE":"PAYLOAD","REF_FRAME":"TEME","CENTER_NAME":"EARTH","PERIAPSIS":"537.679","DECAY_DATE":null},{"TIME_SYSTEM":"UTC","SEMIMAJOR_AXIS":"6917.887","REV_AT_EPOCH":"3432","RCS_SIZE":"LARGE","NORAD_CAT_ID":"50166","COUNTRY_CODE":"US","ARG_OF_PERICENTER":"54.0794","LAUNCH_DATE":"2021-12-18","APOAPSIS":"541.488","MEAN_MOTION":"15.08837845","OBJECT_NAME":"STARLINK-3305","BSTAR":"-0.00003880600000","MEAN_ELEMENT_THEORY":"SGP4","SITE":"AFWTR","OBJECT_ID":"2021-125L","TLE_LINE1":"1 50166U 21125L   22189.87583320 -.00000906  00000-0 -38806-4 0  9993","FILE":"3510087","MEAN_ANOMALY":"306.0430","ELEMENT_SET_NO":"999","EPOCH":"2022-07-08T21:01:11.988480","MEAN_MOTION_DOT":"-0.00000906","GP_ID":"207696898","CLASSIFICATION_TYPE":"U","RA_OF_ASC_NODE":"143.7745","EPHEMERIS_TYPE":"0","PERIOD":"95.438","REF_FRAME":"TEME","PERIAPSIS":"538.016","CENTER_NAME":"EARTH","DECAY_DATE":null,"INCLINATION":"53.2162","ECCENTRICITY":"0.00025090","MEAN_MOTION_DDOT":"0.0000000000000","TLE_LINE2":"2 50166  53.2162 143.7745 0002509  54.0794 306.0430 15.08837845 34322","OBJECT_TYPE":"PAYLOAD"},{"DECAY_DATE":null,"CENTER_NAME":"EARTH","PERIAPSIS":"537.389","REF_FRAME":"TEME","OBJECT_TYPE":"PAYLOAD","TLE_LINE2":"2 50167  53.2176 155.9975 0003338  51.5903 308.5389 15.08855557 34110","MEAN_MOTION_DDOT":"0.0000000000000","ECCENTRICITY":"0.00033380","INCLINATION":"53.2176","ELEMENT_SET_NO":"999","MEAN_ANOMALY":"308.5389","FILE":"3509949","PERIOD":"95.437","EPHEMERIS_TYPE":"0","RA_OF_ASC_NODE":"155.9975","CLASSIFICATION_TYPE":"U","MEAN_MOTION_DOT":"0.00000606","GP_ID":"207668968","EPOCH":"2022-07-08T09:09:45.552672","OBJECT_NAME":"STARLINK-3271","MEAN_MOTION":"15.08855557","APOAPSIS":"542.007","OBJECT_ID":"2021-125M","TLE_LINE1":"1 50167U 21125M   22189.38177723  .00000606  00000-0  56204-4 0  9993","SITE":"AFWTR","MEAN_ELEMENT_THEORY":"SGP4","BSTAR":"0.00005620400000","RCS_SIZE":"LARGE","NORAD_CAT_ID":"50167","REV_AT_EPOCH":"3411","SEMIMAJOR_AXIS":"6917.833","TIME_SYSTEM":"UTC","LAUNCH_DATE":"2021-12-18","ARG_OF_PERICENTER":"51.5903","COUNTRY_CODE":"US"},{"TLE_LINE2":"2 50168  53.2165 143.7914 0002595  55.4444 304.6792 15.08849906 34334","OBJECT_TYPE":"PAYLOAD","INCLINATION":"53.2165","MEAN_MOTION_DDOT":"0.0000000000000","ECCENTRICITY":"0.00025950","CENTER_NAME":"EARTH","PERIAPSIS":"537.920","DECAY_DATE":null,"REF_FRAME":"TEME","EPHEMERIS_TYPE":"0","PERIOD":"95.437","EPOCH":"2022-07-08T20:55:52.522752","CLASSIFICATION_TYPE":"U","RA_OF_ASC_NODE":"143.7914","GP_ID":"207696397","MEAN_MOTION_DOT":"0.00002889","MEAN_ANOMALY":"304.6792","ELEMENT_SET_NO":"999","FILE":"3510087","SITE":"AFWTR","TLE_LINE1":"1 50168U 21125N   22189.87213568  .00002889  00000-0  19948-3 0  9994","OBJECT_ID":"2021-125N","BSTAR":"0.00019948000000","MEAN_ELEMENT_THEORY":"SGP4","OBJECT_NAME":"STARLINK-3296","APOAPSIS":"541.510","MEAN_MOTION":"15.08849906","COUNTRY_CODE":"US","LAUNCH_DATE":"2021-12-18","ARG_OF_PERICENTER":"55.4444","REV_AT_EPOCH":"3433","NORAD_CAT_ID":"50168","RCS_SIZE":"LARGE","SEMIMAJOR_AXIS":"6917.850","TIME_SYSTEM":"UTC"},{"REF_FRAME":"TEME","DECAY_DATE":null,"PERIAPSIS":"537.409","CENTER_NAME":"EARTH","ECCENTRICITY":"0.00032910","MEAN_MOTION_DDOT":"0.0000000000000","INCLINATION":"53.2187","OBJECT_TYPE":"PAYLOAD","TLE_LINE2":"2 50169  53.2187 145.1321 0003291  55.7569 304.3734 15.08859400 34290","FILE":"3510087","MEAN_ANOMALY":"304.3734","ELEMENT_SET_NO":"999","MEAN_MOTION_DOT":"0.00000792","GP_ID":"207696648","RA_OF_ASC_NODE":"145.1321","CLASSIFICATION_TYPE":"U","EPOCH":"2022-07-08T13:51:56.033568","PERIOD":"95.436","EPHEMERIS_TYPE":"0","MEAN_MOTION":"15.08859400","APOAPSIS":"541.963","OBJECT_NAME":"STARLINK-3301","MEAN_ELEMENT_THEORY":"SGP4","BSTAR":"0.00006786700000","TLE_LINE1":"1 50169U 21125P   22189.57773187  .00000792  00000-0  67867-4 0  9995","OBJECT_ID":"2021-125P","SITE":"AFWTR","SEMIMAJOR_AXIS":"6917.821","TIME_SYSTEM":"UTC","RCS_SIZE":"LARGE","NORAD_CAT_ID":"50169","REV_AT_EPOCH":"3429","ARG_OF_PERICENTER":"55.7569","LAUNCH_DATE":"2021-12-18","COUNTRY_CODE":"US"},{"FILE":"3510087","MEAN_ANOMALY":"302.1342","ELEMENT_SET_NO":"999","MEAN_MOTION_DOT":"0.00002129","GP_ID":"207697399","CLASSIFICATION_TYPE":"U","RA_OF_ASC_NODE":"143.8202","EPOCH":"2022-07-08T20:45:16.289568","PERIOD":"95.437","EPHEMERIS_TYPE":"0","REF_FRAME":"TEME","DECAY_DATE":null,"PERIAPSIS":"537.701","CENTER_NAME":"EARTH","ECCENTRICITY":"0.00029130","MEAN_MOTION_DDOT":"0.0000000000000","INCLINATION":"53.2176","OBJECT_TYPE":"PAYLOAD","TLE_LINE2":"2 50170  53.2176 143.8202 0002913  57.9933 302.1342 15.08849630 34321","SEMIMAJOR_AXIS":"6917.851","TIME_SYSTEM":"UTC","NORAD_CAT_ID":"50170","RCS_SIZE":"LARGE","REV_AT_EPOCH":"3432","ARG_OF_PERICENTER":"57.9933","LAUNCH_DATE":"2021-12-18","COUNTRY_CODE":"US","MEAN_MOTION":"15.08849630","APOAPSIS":"541.731","OBJECT_NAME":"STARLINK-3245","MEAN_ELEMENT_THEORY":"SGP4","BSTAR":"0.00015181000000","TLE_LINE1":"1 50170U 21125Q   22189.86477187  .00002129  00000-0  15181-3 0  9997","OBJECT_ID":"2021-125Q","SITE":"AFWTR"},{"LAUNCH_DATE":"2021-12-18","ARG_OF_PERICENTER":"56.9721","COUNTRY_CODE":"US","NORAD_CAT_ID":"50171","RCS_SIZE":"LARGE","REV_AT_EPOCH":"3429","TIME_SYSTEM":"UTC","SEMIMAJOR_AXIS":"6917.881","OBJECT_ID":"2021-125R","TLE_LINE1":"1 50171U 21125R   22189.61454356 -.00000167  00000-0  76245-5 0  9995","SITE":"AFWTR","MEAN_ELEMENT_THEORY":"SGP4","BSTAR":"0.00000762450000","OBJECT_NAME":"STARLINK-3286","MEAN_MOTION":"15.08839680","APOAPSIS":"541.577","PERIOD":"95.438","EPHEMERIS_TYPE":"0","RA_OF_ASC_NODE":"144.9455","CLASSIFICATION_TYPE":"U","GP_ID":"207695647","MEAN_MOTION_DOT":"-0.00000167","EPOCH":"2022-07-08T14:44:56.563584","MEAN_ANOMALY":"303.1525","ELEMENT_SET_NO":"999","FILE":"3510087","OBJECT_TYPE":"PAYLOAD","TLE_LINE2":"2 50171  53.2177 144.9455 0002646  56.9721 303.1525 15.08839680 34296","MEAN_MOTION_DDOT":"0.0000000000000","ECCENTRICITY":"0.00026460","INCLINATION":"53.2177","DECAY_DATE":null,"CENTER_NAME":"EARTH","PERIAPSIS":"537.916","REF_FRAME":"TEME"}];
